{
  "type": "FeatureCollection",
  "features": [
    {
      "type": "Feature",
      "properties": {
        "norad_id": 41866,
        "name": "GOES 16",
        "group": "weather",
        "lat": 0.032015173689969936,
        "lon": -116.90859862403786,
        "alt_km": 35774.213352885134,
        "timestamp": "2025-12-25T16:53:14.296418+00:00",
        "meta_object_name": "GOES 16",
        "meta_object_id": "2016-071A",
        "meta_epoch": "2025-12-24T12:07:46.794144",
        "meta_mean_motion": 1.00273928,
        "meta_eccentricity": 0.00030223,
        "meta_inclination": 0.0751,
        "meta_ra_of_asc_node": 101.9123,
        "meta_arg_of_pericenter": 169.4084,
        "meta_mean_anomaly": 259.2386,
        "meta_ephemeris_type": 0,
        "meta_classification_type": "U",
        "meta_norad_cat_id": 41866,
        "meta_element_set_no": 999,
        "meta_rev_at_epoch": 3335,
        "meta_bstar": 0,
        "meta_mean_motion_dot": -7e-07,
        "meta_mean_motion_ddot": 0,
        "tle_line1": "1 41866U 16071A   25358.50540271 -.00000070  00000+0  00000+0 0  9993",
        "tle_line2": "2 41866   0.0751 101.9123 0003022 169.4084 259.2386  1.00273928 33357"
      },
      "geometry": {
        "type": "Point",
        "coordinates": [
          -116.90859862403786,
          0.032015173689969936
        ]
      }
    },
    {
      "type": "Feature",
      "properties": {
        "norad_id": 41882,
        "name": "FENGYUN 4A",
        "group": "weather",
        "lat": 0.9323901082943331,
        "lon": 111.29615780767858,
        "alt_km": 35796.22264926748,
        "timestamp": "2025-12-25T16:53:14.296431+00:00",
        "meta_object_name": "FENGYUN 4A",
        "meta_object_id": "2016-077A",
        "meta_epoch": "2025-12-25T06:48:21.825216",
        "meta_mean_motion": 1.00263084,
        "meta_eccentricity": 0.00044951,
        "meta_inclination": 1.8789,
        "meta_ra_of_asc_node": 82.2684,
        "meta_arg_of_pericenter": 142.9921,
        "meta_mean_anomaly": 94.4822,
        "meta_ephemeris_type": 0,
        "meta_classification_type": "U",
        "meta_norad_cat_id": 41882,
        "meta_element_set_no": 999,
        "meta_rev_at_epoch": 3318,
        "meta_bstar": 0,
        "meta_mean_motion_dot": -3.37e-06,
        "meta_mean_motion_ddot": 0,
        "tle_line1": "1 41882U 16077A   25359.28358594 -.00000337  00000+0  00000+0 0  9994",
        "tle_line2": "2 41882   1.8789  82.2684 0004495 142.9921  94.4822  1.00263084 33186"
      },
      "geometry": {
        "type": "Point",
        "coordinates": [
          111.29615780767858,
          0.9323901082943331
        ]
      }
    },
    {
      "type": "Feature",
      "properties": {
        "norad_id": 41884,
        "name": "CYGFM05",
        "group": "weather",
        "lat": 1.9525632064131955,
        "lon": -34.7835049418478,
        "alt_km": 418.1912861892515,
        "timestamp": "2025-12-25T16:53:14.296443+00:00",
        "meta_object_name": "CYGFM05",
        "meta_object_id": "2016-078A",
        "meta_epoch": "2025-12-25T06:02:20.349024",
        "meta_mean_motion": 15.48102711,
        "meta_eccentricity": 0.00105568,
        "meta_inclination": 34.9604,
        "meta_ra_of_asc_node": 325.3743,
        "meta_arg_of_pericenter": 290.9758,
        "meta_mean_anomaly": 68.9834,
        "meta_ephemeris_type": 0,
        "meta_classification_type": "U",
        "meta_norad_cat_id": 41884,
        "meta_element_set_no": 999,
        "meta_rev_at_epoch": 50170,
        "meta_bstar": 0.00038156625,
        "meta_mean_motion_dot": 0.00020682,
        "meta_mean_motion_ddot": 0,
        "tle_line1": "1 41884U 16078A   25359.25162441  .00020682  00000+0  38157-3 0  9990",
        "tle_line2": "2 41884  34.9604 325.3743 0010556 290.9758  68.9834 15.48102711501708"
      },
      "geometry": {
        "type": "Point",
        "coordinates": [
          -34.7835049418478,
          1.9525632064131955
        ]
      }
    },
    {
      "type": "Feature",
      "properties": {
        "norad_id": 41885,
        "name": "CYGFM04",
        "group": "weather",
        "lat": 6.825995552909558,
        "lon": -53.30805087691208,
        "alt_km": 408.19715804734733,
        "timestamp": "2025-12-25T16:53:14.296454+00:00",
        "meta_object_name": "CYGFM04",
        "meta_object_id": "2016-078B",
        "meta_epoch": "2025-12-25T04:28:37.064640",
        "meta_mean_motion": 15.50892129,
        "meta_eccentricity": 0.00091344,
        "meta_inclination": 34.935,
        "meta_ra_of_asc_node": 300.2129,
        "meta_arg_of_pericenter": 315.0018,
        "meta_mean_anomaly": 44.9963,
        "meta_ephemeris_type": 0,
        "meta_classification_type": "U",
        "meta_norad_cat_id": 41885,
        "meta_element_set_no": 999,
        "meta_rev_at_epoch": 50187,
        "meta_bstar": 0.00040092546,
        "meta_mean_motion_dot": 0.0002399,
        "meta_mean_motion_ddot": 0,
        "tle_line1": "1 41885U 16078B   25359.18654010  .00023990  00000+0  40093-3 0  9998",
        "tle_line2": "2 41885  34.9350 300.2129 0009134 315.0018  44.9963 15.50892129501872"
      },
      "geometry": {
        "type": "Point",
        "coordinates": [
          -53.30805087691208,
          6.825995552909558
        ]
      }
    },
    {
      "type": "Feature",
      "properties": {
        "norad_id": 41886,
        "name": "CYGFM02",
        "group": "weather",
        "lat": 34.92236545050133,
        "lon": 25.717695251129516,
        "alt_km": 408.0700307633151,
        "timestamp": "2025-12-25T16:53:14.296465+00:00",
        "meta_object_name": "CYGFM02",
        "meta_object_id": "2016-078C",
        "meta_epoch": "2025-12-25T05:41:42.014112",
        "meta_mean_motion": 15.52312249,
        "meta_eccentricity": 0.0010765,
        "meta_inclination": 34.9439,
        "meta_ra_of_asc_node": 298.0418,
        "meta_arg_of_pericenter": 316.9249,
        "meta_mean_anomaly": 43.0631,
        "meta_ephemeris_type": 0,
        "meta_classification_type": "U",
        "meta_norad_cat_id": 41886,
        "meta_element_set_no": 999,
        "meta_rev_at_epoch": 50201,
        "meta_bstar": 0.00040918916,
        "meta_mean_motion_dot": 0.00025793,
        "meta_mean_motion_ddot": 0,
        "tle_line1": "1 41886U 16078C   25359.23729183  .00025793  00000+0  40919-3 0  9999",
        "tle_line2": "2 41886  34.9439 298.0418 0010765 316.9249  43.0631 15.52312249502015"
      },
      "geometry": {
        "type": "Point",
        "coordinates": [
          25.717695251129516,
          34.92236545050133
        ]
      }
    },
    {
      "type": "Feature",
      "properties": {
        "norad_id": 41887,
        "name": "CYGFM01",
        "group": "weather",
        "lat": 33.60233069639104,
        "lon": 36.780582931182025,
        "alt_km": 420.18851812236517,
        "timestamp": "2025-12-25T16:53:14.296476+00:00",
        "meta_object_name": "CYGFM01",
        "meta_object_id": "2016-078D",
        "meta_epoch": "2025-12-25T04:11:15.764928",
        "meta_mean_motion": 15.48692706,
        "meta_eccentricity": 0.00103661,
        "meta_inclination": 34.9435,
        "meta_ra_of_asc_node": 328.1391,
        "meta_arg_of_pericenter": 282.5516,
        "meta_mean_anomaly": 77.4046,
        "meta_ephemeris_type": 0,
        "meta_classification_type": "U",
        "meta_norad_cat_id": 41887,
        "meta_element_set_no": 999,
        "meta_rev_at_epoch": 50163,
        "meta_bstar": 0.00039671797,
        "meta_mean_motion_dot": 0.00021959,
        "meta_mean_motion_ddot": 0,
        "tle_line1": "1 41887U 16078D   25359.17448802  .00021959  00000+0  39672-3 0  9993",
        "tle_line2": "2 41887  34.9435 328.1391 0010366 282.5516  77.4046 15.48692706501631"
      },
      "geometry": {
        "type": "Point",
        "coordinates": [
          36.780582931182025,
          33.60233069639104
        ]
      }
    },
    {
      "type": "Feature",
      "properties": {
        "norad_id": 41888,
        "name": "CYGFM08",
        "group": "weather",
        "lat": -0.4332459221585505,
        "lon": 128.1358698922022,
        "alt_km": 420.84808432820864,
        "timestamp": "2025-12-25T16:53:14.296487+00:00",
        "meta_object_name": "CYGFM08",
        "meta_object_id": "2016-078E",
        "meta_epoch": "2025-12-25T03:44:39.232896",
        "meta_mean_motion": 15.4993145,
        "meta_eccentricity": 0.00114679,
        "meta_inclination": 34.9463,
        "meta_ra_of_asc_node": 311.1056,
        "meta_arg_of_pericenter": 306.0331,
        "meta_mean_anomaly": 53.9328,
        "meta_ephemeris_type": 0,
        "meta_classification_type": "U",
        "meta_norad_cat_id": 41888,
        "meta_element_set_no": 999,
        "meta_rev_at_epoch": 50186,
        "meta_bstar": 0.00039466493,
        "meta_mean_motion_dot": 0.00022838,
        "meta_mean_motion_ddot": 0,
        "tle_line1": "1 41888U 16078E   25359.15600964  .00022838  00000+0  39466-3 0  9999",
        "tle_line2": "2 41888  34.9463 311.1056 0011467 306.0331  53.9328 15.49931450501863"
      },
      "geometry": {
        "type": "Point",
        "coordinates": [
          128.1358698922022,
          -0.4332459221585505
        ]
      }
    }
  ]
}